[
  {
    "OBJECT_NAME": "STARLINK-5902",
    "OBJECT_ID": "23042N",
    "EPOCH": "2025-11-11T02:30:48.561408",
    "MEAN_MOTION": 15.025514,
    "ECCENTRICITY": 0.000148,
    "INCLINATION": 43.0061,
    "RA_OF_ASC_NODE": 340.3421,
    "ARG_OF_PERICENTER": 256.3358,
    "MEAN_ANOMALY": 103.7319,
    "EPHEMERIS_TYPE": 0,
    "CLASSIFICATION_TYPE": "U",
    "NORAD_CAT_ID": 55998,
    "ELEMENT_SET_NO": 999,
    "REV_AT_EPOCH": 14507,
    "BSTAR": 0.0002094,
    "MEAN_MOTION_DOT": 2.627e-05,
    "MEAN_MOTION_DDOT": 0.0,
    "TLE_LINE1": "1 55998U 23042N   25315.10472872  .00002627  00000+0  20940-3 0  9998",
    "TLE_LINE2": "2 55998  43.0061 340.3421 0001480 256.3358 103.7319 15.02551400145078",
    "COMMENT": "Grouped by shell and plane from TLE"
  },
  {
    "OBJECT_NAME": "STARLINK-5901",
    "OBJECT_ID": "23042P",
    "EPOCH": "2025-11-11T01:06:16.140096",
    "MEAN_MOTION": 15.02538033,
    "ECCENTRICITY": 0.0001154,
    "INCLINATION": 43.0037,
    "RA_OF_ASC_NODE": 340.7586,
    "ARG_OF_PERICENTER": 276.2929,
    "MEAN_ANOMALY": 83.7782,
    "EPHEMERIS_TYPE": 0,
    "CLASSIFICATION_TYPE": "U",
    "NORAD_CAT_ID": 55999,
    "ELEMENT_SET_NO": 999,
    "REV_AT_EPOCH": 14506,
    "BSTAR": 1.8511e-05,
    "MEAN_MOTION_DOT": 4.6e-07,
    "MEAN_MOTION_DDOT": 0.0,
    "TLE_LINE1": "1 55999U 23042P   25315.04602014  .00000046  00000+0  18511-4 0  9990",
    "TLE_LINE2": "2 55999  43.0037 340.7586 0001154 276.2929  83.7782 15.02538033145068",
    "COMMENT": "Grouped by shell and plane from TLE"
  },
  {
    "OBJECT_NAME": "STARLINK-5910",
    "OBJECT_ID": "23042Q",
    "EPOCH": "2025-11-11T02:13:13.662336",
    "MEAN_MOTION": 15.02533583,
    "ECCENTRICITY": 0.0001193,
    "INCLINATION": 43.0058,
    "RA_OF_ASC_NODE": 340.2467,
    "ARG_OF_PERICENTER": 280.513,
    "MEAN_ANOMALY": 79.5578,
    "EPHEMERIS_TYPE": 0,
    "CLASSIFICATION_TYPE": "U",
    "NORAD_CAT_ID": 56000,
    "ELEMENT_SET_NO": 999,
    "REV_AT_EPOCH": 14507,
    "BSTAR": 6.887100000000001e-05,
    "MEAN_MOTION_DOT": 7.27e-06,
    "MEAN_MOTION_DDOT": 0.0,
    "TLE_LINE1": "1 56000U 23042Q   25315.09251924  .00000727  00000+0  68871-4 0  9999",
    "TLE_LINE2": "2 56000  43.0058 340.2467 0001193 280.5130  79.5578 15.02533583145075",
    "COMMENT": "Grouped by shell and plane from TLE"
  },
  {
    "OBJECT_NAME": "STARLINK-5944",
    "OBJECT_ID": "23042R",
    "EPOCH": "2025-11-11T02:26:00.960000",
    "MEAN_MOTION": 15.02534852,
    "ECCENTRICITY": 6.97e-05,
    "INCLINATION": 43.0022,
    "RA_OF_ASC_NODE": 340.3103,
    "ARG_OF_PERICENTER": 249.9519,
    "MEAN_ANOMALY": 110.1248,
    "EPHEMERIS_TYPE": 0,
    "CLASSIFICATION_TYPE": "U",
    "NORAD_CAT_ID": 56001,
    "ELEMENT_SET_NO": 999,
    "REV_AT_EPOCH": 14507,
    "BSTAR": 5.1176e-06,
    "MEAN_MOTION_DOT": -1.34e-06,
    "MEAN_MOTION_DDOT": 0.0,
    "TLE_LINE1": "1 56001U 23042R   25315.10140000 -.00000134  00000+0  51176-5 0  9998",
    "TLE_LINE2": "2 56001  43.0022 340.3103 0000697 249.9519 110.1248 15.02534852145079",
    "COMMENT": "Grouped by shell and plane from TLE"
  },
  {
    "OBJECT_NAME": "STARLINK-5799",
    "OBJECT_ID": "23042S",
    "EPOCH": "2025-11-11T02:18:01.204992",
    "MEAN_MOTION": 15.02541596,
    "ECCENTRICITY": 0.0001193,
    "INCLINATION": 43.0059,
    "RA_OF_ASC_NODE": 340.2714,
    "ARG_OF_PERICENTER": 265.2254,
    "MEAN_ANOMALY": 94.8452,
    "EPHEMERIS_TYPE": 0,
    "CLASSIFICATION_TYPE": "U",
    "NORAD_CAT_ID": 56002,
    "ELEMENT_SET_NO": 999,
    "REV_AT_EPOCH": 14507,
    "BSTAR": 0.00010227000000000001,
    "MEAN_MOTION_DOT": 1.178e-05,
    "MEAN_MOTION_DDOT": 0.0,
    "TLE_LINE1": "1 56002U 23042S   25315.09584728  .00001178  00000+0  10227-3 0  9994",
    "TLE_LINE2": "2 56002  43.0059 340.2714 0001193 265.2254  94.8452 15.02541596145074",
    "COMMENT": "Grouped by shell and plane from TLE"
  },
  {
    "OBJECT_NAME": "STARLINK-5789",
    "OBJECT_ID": "23042T",
    "EPOCH": "2025-11-11T00:59:52.155168",
    "MEAN_MOTION": 15.02544358,
    "ECCENTRICITY": 0.0001207,
    "INCLINATION": 43.0047,
    "RA_OF_ASC_NODE": 340.7251,
    "ARG_OF_PERICENTER": 267.0365,
    "MEAN_ANOMALY": 93.0339,
    "EPHEMERIS_TYPE": 0,
    "CLASSIFICATION_TYPE": "U",
    "NORAD_CAT_ID": 56003,
    "ELEMENT_SET_NO": 999,
    "REV_AT_EPOCH": 14506,
    "BSTAR": 0.00013256000000000002,
    "MEAN_MOTION_DOT": 1.588e-05,
    "MEAN_MOTION_DDOT": 0.0,
    "TLE_LINE1": "1 56003U 23042T   25315.04157587  .00001588  00000+0  13256-3 0  9999",
    "TLE_LINE2": "2 56003  43.0047 340.7251 0001207 267.0365  93.0339 15.02544358145065",
    "COMMENT": "Grouped by shell and plane from TLE"
  },
  {
    "OBJECT_NAME": "STARLINK-5787",
    "OBJECT_ID": "23042U",
    "EPOCH": "2025-11-10T11:46:53.185440",
    "MEAN_MOTION": 15.02538692,
    "ECCENTRICITY": 0.0001223,
    "INCLINATION": 43.0046,
    "RA_OF_ASC_NODE": 343.4721,
    "ARG_OF_PERICENTER": 263.0572,
    "MEAN_ANOMALY": 97.0132,
    "EPHEMERIS_TYPE": 0,
    "CLASSIFICATION_TYPE": "U",
    "NORAD_CAT_ID": 56004,
    "ELEMENT_SET_NO": 999,
    "REV_AT_EPOCH": 14498,
    "BSTAR": 3.3343e-05,
    "MEAN_MOTION_DOT": 2.47e-06,
    "MEAN_MOTION_DDOT": 0.0,
    "TLE_LINE1": "1 56004U 23042U   25314.49089335  .00000247  00000+0  33343-4 0  9994",
    "TLE_LINE2": "2 56004  43.0046 343.4721 0001223 263.0572  97.0132 15.02538692144980",
    "COMMENT": "Grouped by shell and plane from TLE"
  },
  {
    "OBJECT_NAME": "STARLINK-5801",
    "OBJECT_ID": "23042V",
    "EPOCH": "2025-11-11T02:22:49.099296",
    "MEAN_MOTION": 15.02535781,
    "ECCENTRICITY": 0.0001007,
    "INCLINATION": 43.0054,
    "RA_OF_ASC_NODE": 340.2966,
    "ARG_OF_PERICENTER": 265.2522,
    "MEAN_ANOMALY": 94.8205,
    "EPHEMERIS_TYPE": 0,
    "CLASSIFICATION_TYPE": "U",
    "NORAD_CAT_ID": 56005,
    "ELEMENT_SET_NO": 999,
    "REV_AT_EPOCH": 14507,
    "BSTAR": 0.00015953999999999998,
    "MEAN_MOTION_DOT": 1.952e-05,
    "MEAN_MOTION_DDOT": 0.0,
    "TLE_LINE1": "1 56005U 23042V   25315.09917939  .00001952  00000+0  15954-3 0  9993",
    "TLE_LINE2": "2 56005  43.0054 340.2966 0001007 265.2522  94.8205 15.02535781145078",
    "COMMENT": "Grouped by shell and plane from TLE"
  },
  {
    "OBJECT_NAME": "STARLINK-5794",
    "OBJECT_ID": "23042W",
    "EPOCH": "2025-11-11T02:02:01.980096",
    "MEAN_MOTION": 15.02546653,
    "ECCENTRICITY": 0.0001089,
    "INCLINATION": 43.0035,
    "RA_OF_ASC_NODE": 340.1848,
    "ARG_OF_PERICENTER": 270.2083,
    "MEAN_ANOMALY": 89.8635,
    "EPHEMERIS_TYPE": 0,
    "CLASSIFICATION_TYPE": "U",
    "NORAD_CAT_ID": 56006,
    "ELEMENT_SET_NO": 999,
    "REV_AT_EPOCH": 14507,
    "BSTAR": 0.00012715000000000003,
    "MEAN_MOTION_DOT": 1.515e-05,
    "MEAN_MOTION_DDOT": 0.0,
    "TLE_LINE1": "1 56006U 23042W   25315.08474514  .00001515  00000+0  12715-3 0  9997",
    "TLE_LINE2": "2 56006  43.0035 340.1848 0001089 270.2083  89.8635 15.02546653145075",
    "COMMENT": "Grouped by shell and plane from TLE"
  },
  {
    "OBJECT_NAME": "STARLINK-5806",
    "OBJECT_ID": "23042X",
    "EPOCH": "2025-11-11T02:06:49.788000",
    "MEAN_MOTION": 15.0254128,
    "ECCENTRICITY": 0.0001224,
    "INCLINATION": 43.0055,
    "RA_OF_ASC_NODE": 340.213,
    "ARG_OF_PERICENTER": 264.0714,
    "MEAN_ANOMALY": 95.9989,
    "EPHEMERIS_TYPE": 0,
    "CLASSIFICATION_TYPE": "U",
    "NORAD_CAT_ID": 56007,
    "ELEMENT_SET_NO": 999,
    "REV_AT_EPOCH": 14507,
    "BSTAR": 7.4115e-05,
    "MEAN_MOTION_DOT": 7.98e-06,
    "MEAN_MOTION_DDOT": 0.0,
    "TLE_LINE1": "1 56007U 23042X   25315.08807625  .00000798  00000+0  74115-4 0  9996",
    "TLE_LINE2": "2 56007  43.0055 340.2130 0001224 264.0714  95.9989 15.02541280145077",
    "COMMENT": "Grouped by shell and plane from TLE"
  },
  {
    "OBJECT_NAME": "STARLINK-5803",
    "OBJECT_ID": "23042Y",
    "EPOCH": "2025-11-11T03:17:09.192480",
    "MEAN_MOTION": 15.0254041,
    "ECCENTRICITY": 0.0001201,
    "INCLINATION": 43.0053,
    "RA_OF_ASC_NODE": 340.5638,
    "ARG_OF_PERICENTER": 263.8207,
    "MEAN_ANOMALY": 96.2498,
    "EPHEMERIS_TYPE": 0,
    "CLASSIFICATION_TYPE": "U",
    "NORAD_CAT_ID": 56008,
    "ELEMENT_SET_NO": 999,
    "REV_AT_EPOCH": 14506,
    "BSTAR": 6.8571e-05,
    "MEAN_MOTION_DOT": 7.23e-06,
    "MEAN_MOTION_DDOT": 0.0,
    "TLE_LINE1": "1 56008U 23042Y   25315.13691195  .00000723  00000+0  68571-4 0  9993",
    "TLE_LINE2": "2 56008  43.0053 340.5638 0001201 263.8207  96.2498 15.02540410145063",
    "COMMENT": "Grouped by shell and plane from TLE"
  },
  {
    "OBJECT_NAME": "STARLINK-5964",
    "OBJECT_ID": "23042Z",
    "EPOCH": "2025-11-11T02:03:38.724768",
    "MEAN_MOTION": 15.02544365,
    "ECCENTRICITY": 0.0001122,
    "INCLINATION": 43.0059,
    "RA_OF_ASC_NODE": 340.1959,
    "ARG_OF_PERICENTER": 261.9343,
    "MEAN_ANOMALY": 98.1372,
    "EPHEMERIS_TYPE": 0,
    "CLASSIFICATION_TYPE": "U",
    "NORAD_CAT_ID": 56009,
    "ELEMENT_SET_NO": 999,
    "REV_AT_EPOCH": 14507,
    "BSTAR": 0.00014402000000000002,
    "MEAN_MOTION_DOT": 1.743e-05,
    "MEAN_MOTION_DDOT": 0.0,
    "TLE_LINE1": "1 56009U 23042Z   25315.08586487  .00001743  00000+0  14402-3 0  9991",
    "TLE_LINE2": "2 56009  43.0059 340.1959 0001122 261.9343  98.1372 15.02544365145070",
    "COMMENT": "Grouped by shell and plane from TLE"
  },
  {
    "OBJECT_NAME": "STARLINK-5968",
    "OBJECT_ID": "23042AA",
    "EPOCH": "2025-11-11T01:57:14.510880",
    "MEAN_MOTION": 15.02537912,
    "ECCENTRICITY": 0.00014,
    "INCLINATION": 43.0056,
    "RA_OF_ASC_NODE": 340.1592,
    "ARG_OF_PERICENTER": 265.2293,
    "MEAN_ANOMALY": 94.8389,
    "EPHEMERIS_TYPE": 0,
    "CLASSIFICATION_TYPE": "U",
    "NORAD_CAT_ID": 56010,
    "ELEMENT_SET_NO": 999,
    "REV_AT_EPOCH": 14507,
    "BSTAR": 9.38e-05,
    "MEAN_MOTION_DOT": 1.064e-05,
    "MEAN_MOTION_DDOT": 0.0,
    "TLE_LINE1": "1 56010U 23042AA  25315.08141795  .00001064  00000+0  93800-4 0  9998",
    "TLE_LINE2": "2 56010  43.0056 340.1592 0001400 265.2293  94.8389 15.02537912145073",
    "COMMENT": "Grouped by shell and plane from TLE"
  }
]